{
    "links": {
        "self": "http://www.neowsapp.com/rest/v1/neo/54087807?api_key=iIulBulltgU6a56xZRHN4H3l9WmuAYTsLGpBGhQ2"
    },
    "id": "54087807",
    "neo_reference_id": "54087807",
    "name": "(2020 VR4)",
    "designation": "2020 VR4",
    "nasa_jpl_url": "http://ssd.jpl.nasa.gov/sbdb.cgi?sstr=54087807",
    "absolute_magnitude_h": 25.4,
    "estimated_diameter": {
        "kilometers": {
            "estimated_diameter_min": 0.022108281,
            "estimated_diameter_max": 0.0494356193
        },
        "meters": {
            "estimated_diameter_min": 22.1082810359,
            "estimated_diameter_max": 49.435619262
        },
        "miles": {
            "estimated_diameter_min": 0.0137374447,
            "estimated_diameter_max": 0.0307178602
        },
        "feet": {
            "estimated_diameter_min": 72.5337327539,
            "estimated_diameter_max": 162.1903570994
        }
    },
    "is_potentially_hazardous_asteroid": false,
    "close_approach_data": [
        {
            "close_approach_date": "2020-11-16",
            "close_approach_date_full": "2020-Nov-16 00:25",
            "epoch_date_close_approach": 1605486300000,
            "relative_velocity": {
                "kilometers_per_second": "12.8802264025",
                "kilometers_per_hour": "46368.8150490083",
                "miles_per_hour": "28811.7784397574"
            },
            "miss_distance": {
                "astronomical": "0.0151218508",
                "lunar": "5.8823999612",
                "kilometers": "2262196.670137796",
                "miles": "1405663.8293257448"
            },
            "orbiting_body": "Earth"
        }
    ],
    "orbital_data": {
        "orbit_id": "3",
        "orbit_determination_date": "2020-11-16 05:23:07",
        "first_observation_date": "2020-11-13",
        "last_observation_date": "2020-11-16",
        "data_arc_in_days": 3,
        "observations_used": 48,
        "orbit_uncertainty": "8",
        "minimum_orbit_intersection": ".00205766",
        "jupiter_tisserand_invariant": "4.560",
        "epoch_osculation": "2459167.5",
        "eccentricity": ".4835147498657056",
        "semi_major_axis": "1.427432490214141",
        "inclination": "4.236515408244688",
        "ascending_node_longitude": "231.0887932809035",
        "orbital_period": "622.9193092313413",
        "perihelion_distance": ".7372478267580694",
        "perihelion_argument": "259.0450556093483",
        "aphelion_distance": "2.117617153670212",
        "perihelion_time": "2459219.815159496326",
        "mean_anomaly": "329.7658153478704",
        "mean_motion": ".5779239697100195",
        "equinox": "J2000",
        "orbit_class": {
            "orbit_class_type": "APO",
            "orbit_class_description": "Near-Earth asteroid orbits which cross the Earth’s orbit similar to that of 1862 Apollo",
            "orbit_class_range": "a (semi-major axis) > 1.0 AU; q (perihelion) < 1.017 AU"
        }
    },
    "is_sentry_object": false
}